{
  "norad_id": 67916,
  "name": "STARLINK-36721",
  "history": [
    {
      "epoch": "2026-05-03T20:47:38.408064Z",
      "apogee_km": 484.0698013695037,
      "perigee_km": 481.89345454071554,
      "latitude_deg": 1.3645124835416853e-06,
      "longitude_deg": 119.7111113040381,
      "height_km": 482.7892425785837,
      "semi_major_axis_km": 6861.118627955109,
      "eccentricity": 0.0001586,
      "inclination_deg": 43.0026,
      "raan_deg": 293.3851,
      "arg_perigee_deg": 268.395,
      "mean_anomaly_deg": 91.672,
      "mean_motion_rev_day": 15.27602532
    },
    {
      "epoch": "2026-05-04T20:19:59.035584Z",
      "apogee_km": 484.09832976820144,
      "perigee_km": 481.9480421659191,
      "latitude_deg": 1.571277098259445e-05,
      "longitude_deg": 120.1193601990568,
      "height_km": 483.01580783813,
      "semi_major_axis_km": 6861.16018596706,
      "eccentricity": 0.0001567,
      "inclination_deg": 43.0033,
      "raan_deg": 287.846,
      "arg_perigee_deg": 258.4388,
      "mean_anomaly_deg": 101.6288,
      "mean_motion_rev_day": 15.27588653
    },
    {
      "epoch": "2026-05-05T19:52:19.517088Z",
      "apogee_km": 484.45054392566635,
      "perigee_km": 481.4906621057253,
      "latitude_deg": 2.0262689980374017e-05,
      "longitude_deg": 120.5291084019693,
      "height_km": 482.9437002199481,
      "semi_major_axis_km": 6861.1076030156955,
      "eccentricity": 0.0002157,
      "inclination_deg": 43.0047,
      "raan_deg": 282.3078,
      "arg_perigee_deg": 262.4157,
      "mean_anomaly_deg": 97.645,
      "mean_motion_rev_day": 15.27606214
    },
    {
      "epoch": "2026-05-06T13:08:03.798816Z",
      "apogee_km": 484.47797028389505,
      "perigee_km": 481.7087777049519,
      "latitude_deg": 1.0006255627490075e-06,
      "longitude_deg": -143.17485957696107,
      "height_km": 483.0305430340009,
      "semi_major_axis_km": 6861.230373994424,
      "eccentricity": 0.0002018,
      "inclination_deg": 43.0045,
      "raan_deg": 278.2473,
      "arg_perigee_deg": 263.3846,
      "mean_anomaly_deg": 96.6776,
      "mean_motion_rev_day": 15.27565213
    },
    {
      "epoch": "2026-05-07T18:57:02.251296Z",
      "apogee_km": 484.31310864334773,
      "perigee_km": 481.6729458088721,
      "latitude_deg": 4.6033885774671076e-06,
      "longitude_deg": 121.34037847370443,
      "height_km": 482.93445489310074,
      "semi_major_axis_km": 6861.13002722611,
      "eccentricity": 0.0001924,
      "inclination_deg": 43.0043,
      "raan_deg": 271.2306,
      "arg_perigee_deg": 262.8692,
      "mean_anomaly_deg": 97.1941,
      "mean_motion_rev_day": 15.27598725
    },
    {
      "epoch": "2026-05-08T20:03:31.621824Z",
      "apogee_km": 484.33499982913145,
      "perigee_km": 481.5576333025847,
      "latitude_deg": 1.730130622982e-05,
      "longitude_deg": 97.78005630185285,
      "height_km": 482.7229207537494,
      "semi_major_axis_km": 6861.083316565858,
      "eccentricity": 0.0002024,
      "inclination_deg": 43.0046,
      "raan_deg": 265.3238,
      "arg_perigee_deg": 270.0452,
      "mean_anomaly_deg": 90.0168,
      "mean_motion_rev_day": 15.27614325
    },
    {
      "epoch": "2026-05-09T16:27:33.964128Z",
      "apogee_km": 484.6550980370166,
      "perigee_km": 481.4481784674981,
      "latitude_deg": 9.649864125981223e-06,
      "longitude_deg": 146.13466177998438,
      "height_km": 482.8368433112198,
      "semi_major_axis_km": 6861.188638252257,
      "eccentricity": 0.0002337,
      "inclination_deg": 43.0038,
      "raan_deg": 260.526,
      "arg_perigee_deg": 269.7368,
      "mean_anomaly_deg": 90.3216,
      "mean_motion_rev_day": 15.27579151
    },
    {
      "epoch": "2026-05-10T19:08:13.428096Z",
      "apogee_km": 484.4272448347738,
      "perigee_km": 481.5949628974977,
      "latitude_deg": -8.953414954019002e-06,
      "longitude_deg": 98.59299603043314,
      "height_km": 482.79407379314256,
      "semi_major_axis_km": 6861.148103866136,
      "eccentricity": 0.0002064,
      "inclination_deg": 43.0028,
      "raan_deg": 254.2444,
      "arg_perigee_deg": 269.78,
      "mean_anomaly_deg": 90.2815,
      "mean_motion_rev_day": 15.27592688
    }
  ]
}